[{"OBJECT_NAME":"LYNK TOWER 5","OBJECT_ID":"2024-043Z","EPOCH":"2026-03-09T22:11:51.175104","MEAN_MOTION":15.29454506,"ECCENTRICITY":0.00104056,"INCLINATION":97.5458,"RA_OF_ASC_NODE":204.7305,"ARG_OF_PERICENTER":234.6422,"MEAN_ANOMALY":125.3846,"EPHEMERIS_TYPE":0,"CLASSIFICATION_TYPE":"U","NORAD_CAT_ID":59121,"ELEMENT_SET_NO":999,"REV_AT_EPOCH":11186,"BSTAR":0.00031901545,"MEAN_MOTION_DOT":9.048e-5,"MEAN_MOTION_DDOT":0},{"OBJECT_NAME":"STARLINK-35580","OBJECT_ID":"2025-240K","EPOCH":"2026-03-09T06:07:17.060448","MEAN_MOTION":15.3019797,"ECCENTRICITY":0.00012036,"INCLINATION":53.1604,"RA_OF_ASC_NODE":64.7055,"ARG_OF_PERICENTER":80.4775,"MEAN_ANOMALY":279.6362,"EPHEMERIS_TYPE":0,"CLASSIFICATION_TYPE":"U","NORAD_CAT_ID":66155,"ELEMENT_SET_NO":999,"REV_AT_EPOCH":2192,"BSTAR":0.00072656172,"MEAN_MOTION_DOT":0.0002122,"MEAN_MOTION_DDOT":0}]
